{
    "links": {
        "self": "http://www.neowsapp.com/rest/v1/neo/3757287?api_key=iIulBulltgU6a56xZRHN4H3l9WmuAYTsLGpBGhQ2"
    },
    "id": "3757287",
    "neo_reference_id": "3757287",
    "name": "(2016 PK38)",
    "designation": "2016 PK38",
    "nasa_jpl_url": "http://ssd.jpl.nasa.gov/sbdb.cgi?sstr=3757287",
    "absolute_magnitude_h": 24.4,
    "estimated_diameter": {
        "kilometers": {
            "estimated_diameter_min": 0.0350392641,
            "estimated_diameter_max": 0.0783501764
        },
        "meters": {
            "estimated_diameter_min": 35.0392641108,
            "estimated_diameter_max": 78.3501764334
        },
        "miles": {
            "estimated_diameter_min": 0.0217723826,
            "estimated_diameter_max": 0.0486845275
        },
        "feet": {
            "estimated_diameter_min": 114.9582192654,
            "estimated_diameter_max": 257.0543928497
        }
    },
    "is_potentially_hazardous_asteroid": false,
    "close_approach_data": [
        {
            "close_approach_date": "2016-07-14",
            "close_approach_date_full": "2016-Jul-14 09:08",
            "epoch_date_close_approach": 1468487280000,
            "relative_velocity": {
                "kilometers_per_second": "6.4956890572",
                "kilometers_per_hour": "23384.4806059114",
                "miles_per_hour": "14530.2068520453"
            },
            "miss_distance": {
                "astronomical": "0.1363449993",
                "lunar": "53.0382047277",
                "kilometers": "20396921.480431491",
                "miles": "12674059.3040009358"
            },
            "orbiting_body": "Earth"
        }
    ],
    "orbital_data": {
        "orbit_id": "2",
        "orbit_determination_date": "2017-04-06 08:24:36",
        "first_observation_date": "2016-08-07",
        "last_observation_date": "2016-08-11",
        "data_arc_in_days": 4,
        "observations_used": 9,
        "orbit_uncertainty": "9",
        "minimum_orbit_intersection": ".134833",
        "jupiter_tisserand_invariant": "3.577",
        "epoch_osculation": "2457608.5",
        "eccentricity": ".4584698365575364",
        "semi_major_axis": "2.117785428326559",
        "inclination": "9.079111394207262",
        "ascending_node_longitude": "122.7454778014971",
        "orbital_period": "1125.696615935947",
        "perihelion_distance": "1.146844689137749",
        "perihelion_argument": "165.0416707197439",
        "aphelion_distance": "3.088726167515368",
        "perihelion_time": "2457578.457216536040",
        "mean_anomaly": "9.607741458859465",
        "mean_motion": ".3198019740875584",
        "equinox": "J2000",
        "orbit_class": {
            "orbit_class_type": "AMO",
            "orbit_class_description": "Near-Earth asteroid orbits similar to that of 1221 Amor",
            "orbit_class_range": "1.017 AU < q (perihelion) < 1.3 AU"
        }
    },
    "is_sentry_object": false
}